[
    {
        "Altitude(m)": 617719.7298842196,
        "Argument of Periapsis(deg)": 0.0,
        "Eccentricity": 0.0,
        "Inclination(deg)": 60.0,
        "Latitude(deg)": -41.1025289511072,
        "Longitude(deg)": 50.094698463219196,
        "Mean Anomaly(deg)": -130.9091,
        "RAAN(deg)": 300.0,
        "Satellite Name": "Test1 1334",
        "Satellite Number": 1334,
        "Semi-Major Axis(m)": 6980739.136638005,
        "Time(s)": 0
    },
    {
        "Altitude(m)": 617911.2655107721,
        "Argument of Periapsis(deg)": 0.00010418945913296404,
        "Eccentricity": 0.0,
        "Inclination(deg)": 60.0,
        "Latitude(deg)": -41.56572041940109,
        "Longitude(deg)": 50.59910499336225,
        "Mean Anomaly(deg)": -130.28899385453815,
        "RAAN(deg)": 299.99957995086027,
        "Satellite Name": "Test1 1334",
        "Satellite Number": 1334,
        "Semi-Major Axis(m)": 6980739.136638005,
        "Time(s)": 10
    }
]